TDRS 3                  
1 19548U 88091B   24129.25866422 -.00000308  00000+0  00000+0 0  9996
2 19548  13.1941 346.2066 0036291 343.5222 301.1160  1.00270559117669
HST                     
1 20580U 90037B   24129.59398382  .00007183  00000+0  34272-3 0  9998
2 20580  28.4688 250.2970 0002145 336.8999  23.1497 15.17145233671010
TDRS 5                  
1 21639U 91054B   24128.46747201 -.00000309  00000+0  00000+0 0  9999
2 21639  14.1695 359.4102 0002083 293.6108  38.4997  1.00267754119985
TDRS 6                  
1 22314U 93003B   24129.16833008 -.00000303  00000+0  00000+0 0  9999
2 22314  14.1628   2.7089 0009376 146.3533  92.1335  1.00276054114680
TDRS 7                  
1 23613U 95035B   24128.90290587 -.00000209  00000+0  00000+0 0  9994
2 23613  13.6993 353.5171 0028333  66.1103 216.4472  1.00269054105424
ISS (ZARYA)             
1 25544U 98067A   24129.50622943  .00015586  00000+0  27067-3 0  9998
2 25544  51.6355 152.1354 0003334 147.8660 212.2533 15.51014775452390
LANDSAT 7               
1 25682U 99020A   24129.63601267  .00000782  00000+0  16985-3 0  9990
2 25682  97.8908 158.2875 0001855  96.9125  17.5238 14.60612090333366
TERRA                   
1 25994U 99068A   24129.62496059  .00000832  00000+0  18378-3 0  9992
2 25994  98.0502 194.2720 0003291 114.7965  42.8795 14.59718024297271
TDRS 8                  
1 26388U 00034A   24129.58748657  .00000091  00000+0  00000+0 0  9990
2 26388  11.4811  37.5788 0002750 291.6171 301.5567  1.00275204 87467
TIMED                   
1 26998U 01055B   24129.60238635  .00001936  00000+0  19852-3 0  9992
2 26998  74.0709 340.4017 0000522 316.9409  43.1733 14.91208011215920
AQUA                    
1 27424U 02022A   24129.61527958  .00001592  00000+0  34767-3 0  9992
2 27424  98.3282  78.8455 0000884 103.3792  10.6283 14.59206087170904
TDRS 10                 
1 27566U 02055A   24129.62351601  .00000085  00000+0  00000+0 0  9991
2 27566   9.4909  45.6777 0006725 340.5141 254.3606  1.00280740 78512
SORCE                   
1 27651U 03004A   24129.54818427  .00004836  00000+0  44807-3 0  9991
2 27651  39.9936 306.4585 0021740 314.7306  45.1715 14.94765423156315
AURA                    
1 28376U 04026A   24129.58258131  .00001562  00000+0  34640-3 0  9992
2 28376  98.2490  74.7013 0001379 110.6924 249.4423 14.58496569 53907
SWIFT                   
1 28485U 04047A   24129.29843929  .00011522  00000+0  52518-3 0  9990
2 28485  20.5558 106.5722 0008327 124.9318 235.1902 15.17953730 68103
THEMIS A                
1 30580U 07004A   24125.06278171 -.00000596  00000+0  00000+0 0  9992
2 30580  10.3813 268.5524 8338181 312.3778   2.4548  0.87833694 34478
THEMIS D                
1 30797U 07004D   24127.38172854 -.00000543  00000+0  00000+0 0  9992
2 30797   6.3492 263.9790 8328446 320.9029   3.3996  0.87835041 34292
THEMIS E                
1 30798U 07004E   24129.63114806 -.00000523  00000+0  00000+0 0  9994
2 30798   7.8839 282.8361 8323625 303.6578  10.2711  0.87832555 59150
FGRST (GLAST)           
1 33053U 08029A   24129.36612622  .00003854  00000+0  17698-3 0  9992
2 33053  25.5815 122.7316 0010018 288.3656  71.5790 15.16449757878520
WISE                    
1 36119U 09071A   24129.61451014  .00044113  00000+0  54354-3 0  9993
2 36119  97.1496 165.7849 0001231 147.5253 212.6080 15.60090968802061
TDRS 11                 
1 39070U 13004A   24129.62135521  .00000077  00000+0  00000+0 0  9992
2 39070   2.7310  10.2723 0006220  43.0030 222.9208  1.00273545 38978
TDRS 12                 
1 39504U 14004A   24129.14080294 -.00000273  00000+0  00000+0 0  9997
2 39504   3.5530   2.4488 0002318 174.1260  59.4414  1.00264875 36559
GPM-CORE                
1 39574U 14009C   24129.57343930  .00018466  00000+0  39984-3 0  9994
2 39574  64.9880   5.7024 0012485 265.3622  94.6093 15.44466261578931
MMS 1                   
1 40482U 15011A   24129.58334491 -.00000674  00000+0  00000+0 0  9997
2 40482  45.7019  14.1411 9112789 144.1731  39.9583  0.28421073  1360
MMS 2                   
1 40483U 15011B   24129.58334491 -.00000674  00000+0  00000+0 0  9998
2 40483  45.6966  14.1345 9112821 144.1801  39.9535  0.28421093  1361
MMS 3                   
1 40484U 15011C   24129.58334491 -.00000674  00000+0  00000+0 0  9999
2 40484  45.7013  14.1377 9113378 144.1820  39.9382  0.28421092  1369
MMS 4                   
1 40485U 15011D   24129.58334491 -.00000674  00000+0  00000+0 0  9990
2 40485  45.6991  14.1409 9112249 144.1795  39.9373  0.28421084  1368
TDRS 13                 
1 42915U 17047A   24128.99552451 -.00000106  00000+0  00000+0 0  9993
2 42915   3.6738 343.8186 0016659 109.3476 120.0332  1.00271723 24628
NOAA 20 (JPSS-1)        
1 43013U 17073A   24129.58977710  .00000156  00000+0  94429-4 0  9994
2 43013  98.7047  68.1777 0001160  35.9069 324.2185 14.19576006335289
